PERSEUS-M1              
1 40039U 14033AF  26177.67005046  .00001874  00000+0  17384-3 0  9993
2 40039  97.9648 121.9576 0009782 265.6339  94.3764 14.95663200652059
POLYITAN-1              
1 40042U 14033AJ  26176.60092591  .00023755  00000+0  73319-3 0  9992
2 40042  98.0941 203.6586 0008872 118.2869 241.9268 15.33535945654889
TIGRISAT                
1 40043U 14033AK  26177.68284904  .00001731  00000+0  20385-3 0  9998
2 40043  97.7842 327.4774 0050124  44.7680 315.7563 14.85194115647034
AEROCUBE 6A             
1 40045U 14033AM  26177.70817330  .00004528  00000+0  38111-3 0  9991
2 40045  97.7228 344.5572 0038183 344.9116  15.0964 14.98184070648040
AEROCUBE 6B             
1 40046U 14033AN  26177.70123220  .00004617  00000+0  37409-3 0  9998
2 40046  97.7227 344.3618 0037740 336.0186  23.9278 14.99648139648189
CANX-4                  
1 40055U 14034C   26177.60892005  .00000841  00000+0  11506-3 0  9997
2 40055  98.3111  53.2673 0012436 347.1728  12.9165 14.81280105645923
CANX-5                  
1 40056U 14034D   26177.60724345  .00000848  00000+0  11591-3 0  9990
2 40056  98.3114  53.3098 0012441 347.3875  12.7023 14.81297429636737
UKUBE-1                 
1 40074U 14037F   26177.48946123  .00008811  00000+0  49360-3 0  9992
2 40074  98.4237 181.7392 0003036 117.7936 242.3600 15.13689775649960
BRITE-PL2 (HEWELIUSZ)   
1 40119U 14049B   26177.54513354  .00001709  00000+0  16299-3 0  9992
2 40119  97.9106 289.6176 0015377  79.9676 280.3278 14.94627428642846
AEROCUBE 5C             
1 40965U 15058B   26177.49106786  .00002073  00000+0  19034-3 0  9998
2 40965  64.7664 233.6456 0131217  59.6399 301.7611 14.91488513367047
AEROCUBE 7              
1 40966U 15058C   26177.52765350  .00003200  00000+0  26110-3 0  9997
2 40966  64.7607 215.5583 0120940  57.9886 303.2911 14.95774878367358
FOX-1A (AO-85)          
1 40967U 15058D   26177.60875044  .00002109  00000+0  19593-3 0  9993
2 40967  64.7749 249.7037 0131014  52.9293 308.3713 14.91006682114971
SINOD-D 1               
1 40968U 15058E   26177.43763045  .00003234  00000+0  26324-3 0  9992
2 40968  64.7739 229.9429 0119663  49.4285 311.7170 14.95955298118041
SNAP-3 ALICE            
1 40970U 15058G   26177.71856324  .00143263  00000+0  15521-2 0  9992
2 40970  64.7504  70.9325 0024959   5.8036 354.3395 15.62472998118370
LMRST-SAT               
1 40971U 15058H   26177.63355382  .00001754  00000+0  16664-3 0  9990
2 40971  64.7743 245.9828 0132611  54.9501 306.3966 14.90623748114968
SNAP-3 EDDIE            
1 40972U 15058J   26176.99738703  .00146581  00000+0  15257-2 0  9995
2 40972  64.7418  64.0911 0025478   9.7390 350.4246 15.63466255120403
PROPCUBE 3              
1 40973U 15058K   26177.51207931  .00002709  00000+0  23025-3 0  9995
2 40973  64.7672 223.4003 0124548  56.2341 305.0563 14.94300275116191
BISONSAT                
1 40974U 15058L   26177.26686183  .00016488  00000+0  78594-3 0  9998
2 40974  64.7572 144.2838 0080135  43.5930 317.1488 15.16410925116990
SNAP-3 JIMI             
1 40975U 15058M   26177.37549378  .00006148  00000+0  42149-3 0  9994
2 40975  64.7632 190.6990 0106633  51.6805 309.3839 15.02378366115602
PROPCUBE 1 (FLORA)      
1 40976U 15058N   26177.66430591  .00001953  00000+0  19095-3 0  9996
2 40976  64.7749 265.8631 0131268  57.2315 304.1365 14.89258404117679
SINOD-D 3               
1 40977U 15058P   26177.47831819  .00002825  00000+0  24358-3 0  9991
2 40977  64.7720 246.8052 0119787  54.4457 306.7753 14.94063839116145
HORYU-4                 
1 41340U 16012D   26177.60135035  .00981345  51298-3  11416-2 0  9991
2 41340  30.9826   9.3933 0008771 328.5167  31.4973 16.07657648572320
RAVAN                   
1 41849U 16067B   26177.69565878  .00046170  00000+0  67249-3 0  9991
2 41849  97.9880  68.3716 0002642 358.8423   1.2823 15.55594375529176
CELTEE 1                
1 41850U 16067C   26177.42511351  .00005797  00000+0  27454-3 0  9995
2 41850  98.0667  44.6223 0001455 128.9648 231.1715 15.19767021527283
OPTICUBE 04             
1 41851U 16067D   26177.49103693  .00002168  00000+0  13858-3 0  9991
2 41851  98.0694  30.2600 0017023  86.7343 273.5832 15.09695294526577
AEROCUBE 8D             
1 41852U 16067E   26177.14809934  .00008298  00000+0  34051-3 0  9993
2 41852  98.0682  48.0013 0005022 102.1384 258.0415 15.24514880527433
AEROCUBE 8C             
1 41853U 16067F   26177.17161569  .00009065  00000+0  36880-3 0  9997
2 41853  98.0549  45.2426 0006091  44.4349 315.7375 15.24766784527437
CORVUS BC2              
1 42846U 17042X   26177.69416148  .00002806  00000+0  19434-3 0  9999
2 42846  97.4071 338.6750 0014697  81.2515 279.0376 15.06352474488499
CORVUS BC1              
1 42847U 17042Y   26177.68771927  .00002780  00000+0  19183-3 0  9990
2 42847  97.4096 339.4890 0013119  60.2631 299.9900 15.06515348488524
MAKERSAT 0              
1 43016U 17073D   26175.42911744  .00015733  00000+0  42578-3 0  9992
2 43016  97.4622  58.0052 0104847 246.7219 112.2959 15.32301022467578
